ONEWEB-0421             
1 50496U 21132AD  25308.26752503  .00000079  00000+0  16887-3 0  9999
2 50496  87.9225  20.1273 0001631 109.8519 250.2790 13.18686104191978
ONEWEB-0424             
1 50497U 21132AE  25308.22794074  .00000110  00000+0  24669-3 0  9998
2 50497  87.9228  20.1310 0002037  90.3040 269.8326 13.18686172191996
ONEWEB-0426             
1 50498U 21132AF  25308.26421858  .00000038  00000+0  62782-4 0  9998
2 50498  87.9225  20.1145 0001203 106.9339 253.1925 13.18687717191941
ONEWEB-0427             
1 50499U 21132AG  25308.22627453  .00000035  00000+0  56386-4 0  9994
2 50499  87.9225  20.1108 0001687  94.5587 265.5738 13.18686659191969
ONEWEB-0429             
1 50500U 21132AH  25308.21309152  .00000097  00000+0  21373-3 0  9994
2 50500  87.9227  20.1447 0001955 102.4702 257.6649 13.18687172191937
ONEWEB-0430             
1 50501U 21132AJ  25308.20154384  .00000050  00000+0  95204-4 0  9993
2 50501  87.9232  20.1417 0002070  97.3674 262.7694 13.18687161191979
ONEWEB-0432             
1 50502U 21132AK  25308.15726050  .00000072  00000+0  14993-3 0  9992
2 50502  87.9223  20.1248 0001905  71.9346 288.1993 13.18672139191920
ONEWEB-0440             
1 50503U 21132AL  25308.22134096  .00000081  00000+0  17347-3 0  9990
2 50503  87.9226  20.1283 0001850 113.0392 247.0935 13.18686661191926
ONEWEB-0450             
1 50504U 21132AM  25308.21487163  .00000018  00000+0  14172-4 0  9990
2 50504  87.9229  20.1529 0002142 103.0579 257.0793 13.18684635191959
ONEWEB-0410             
1 51622U 22012A   25308.29434397  .00000119  00000+0  27365-3 0  9998
2 51622  87.9138  50.5608 0000652  46.3224 313.7962 13.17651144184087
ONEWEB-0411             
1 51623U 22012B   25308.29289575  .00000556  00000+0  15570-2 0  9994
2 51623  87.8782  81.0980 0002118  91.2300 268.9070 13.10371806179832
ONEWEB-0415             
1 51624U 22012C   25308.28957761  .00000590  00000+0  16526-2 0  9993
2 51624  87.8784  81.1008 0001845  92.6275 267.5064 13.10372566179831
ONEWEB-0416             
1 51625U 22012D   25308.30118794  .00000163  00000+0  42944-3 0  9992
2 51625  87.8780  81.1193 0001592  95.8041 264.3268 13.10370563179878
ONEWEB-0422             
1 51626U 22012E   25308.30447434  .00000059  00000+0  11854-3 0  9999
2 51626  87.9135  50.5633 0002202 117.6073 242.5282 13.17650607184192
ONEWEB-0423             
1 51627U 22012F   25308.29772404  .00000091  00000+0  20047-3 0  9996
2 51627  87.9138  50.5746 0001682 105.7596 254.3722 13.17650255184087
ONEWEB-0425             
1 51628U 22012G   25308.31113278 -.00000269  00000+0 -80612-3 0  9991
2 51628  87.8787  81.0870 0001229  96.5643 263.5624 13.10371448179872
ONEWEB-0428             
1 51629U 22012H   25308.29123732  .00000617  00000+0  17325-2 0  9990
2 51629  87.8781  81.1112 0001733 101.7983 258.3339 13.10372250179836
