[{"OBJECT_NAME":"ONEWEB-0421","OBJECT_ID":"2021-132AD","EPOCH":"2025-11-04T06:25:14.162592","MEAN_MOTION":13.18686104,"ECCENTRICITY":0.00016316,"INCLINATION":87.9225,"RA_OF_ASC_NODE":20.1273,"ARG_OF_PERICENTER":109.8519,"MEAN_ANOMALY":250.279,"EPHEMERIS_TYPE":0,"CLASSIFICATION_TYPE":"U","NORAD_CAT_ID":50496,"ELEMENT_SET_NO":999,"REV_AT_EPOCH":19197,"BSTAR":0.00016887426,"MEAN_MOTION_DOT":7.9e-7,"MEAN_MOTION_DDOT":0},{"OBJECT_NAME":"ONEWEB-0424","OBJECT_ID":"2021-132AE","EPOCH":"2025-11-04T05:28:14.079936","MEAN_MOTION":13.18686172,"ECCENTRICITY":0.00020378,"INCLINATION":87.9228,"RA_OF_ASC_NODE":20.131,"ARG_OF_PERICENTER":90.304,"MEAN_ANOMALY":269.8326,"EPHEMERIS_TYPE":0,"CLASSIFICATION_TYPE":"U","NORAD_CAT_ID":50497,"ELEMENT_SET_NO":999,"REV_AT_EPOCH":19199,"BSTAR":0.00024669407,"MEAN_MOTION_DOT":1.1e-6,"MEAN_MOTION_DDOT":0},{"OBJECT_NAME":"ONEWEB-0426","OBJECT_ID":"2021-132AF","EPOCH":"2025-11-04T06:20:28.485312","MEAN_MOTION":13.18687717,"ECCENTRICITY":0.0001203,"INCLINATION":87.9225,"RA_OF_ASC_NODE":20.1145,"ARG_OF_PERICENTER":106.9339,"MEAN_ANOMALY":253.1925,"EPHEMERIS_TYPE":0,"CLASSIFICATION_TYPE":"U","NORAD_CAT_ID":50498,"ELEMENT_SET_NO":999,"REV_AT_EPOCH":19194,"BSTAR":6.2782188e-5,"MEAN_MOTION_DOT":3.8e-7,"MEAN_MOTION_DDOT":0},{"OBJECT_NAME":"ONEWEB-0427","OBJECT_ID":"2021-132AG","EPOCH":"2025-11-04T05:25:50.119392","MEAN_MOTION":13.18686659,"ECCENTRICITY":0.00016874,"INCLINATION":87.9225,"RA_OF_ASC_NODE":20.1108,"ARG_OF_PERICENTER":94.5587,"MEAN_ANOMALY":265.5738,"EPHEMERIS_TYPE":0,"CLASSIFICATION_TYPE":"U","NORAD_CAT_ID":50499,"ELEMENT_SET_NO":999,"REV_AT_EPOCH":19196,"BSTAR":5.6386077e-5,"MEAN_MOTION_DOT":3.5e-7,"MEAN_MOTION_DDOT":0},{"OBJECT_NAME":"ONEWEB-0429","OBJECT_ID":"2021-132AH","EPOCH":"2025-11-04T05:06:51.107328","MEAN_MOTION":13.18687172,"ECCENTRICITY":0.00019554,"INCLINATION":87.9227,"RA_OF_ASC_NODE":20.1447,"ARG_OF_PERICENTER":102.4702,"MEAN_ANOMALY":257.6649,"EPHEMERIS_TYPE":0,"CLASSIFICATION_TYPE":"U","NORAD_CAT_ID":50500,"ELEMENT_SET_NO":999,"REV_AT_EPOCH":19193,"BSTAR":0.00021373185,"MEAN_MOTION_DOT":9.7e-7,"MEAN_MOTION_DDOT":0},{"OBJECT_NAME":"ONEWEB-0430","OBJECT_ID":"2021-132AJ","EPOCH":"2025-11-04T04:50:13.387776","MEAN_MOTION":13.18687161,"ECCENTRICITY":0.00020705,"INCLINATION":87.9232,"RA_OF_ASC_NODE":20.1417,"ARG_OF_PERICENTER":97.3674,"MEAN_ANOMALY":262.7694,"EPHEMERIS_TYPE":0,"CLASSIFICATION_TYPE":"U","NORAD_CAT_ID":50501,"ELEMENT_SET_NO":999,"REV_AT_EPOCH":19197,"BSTAR":9.5204416e-5,"MEAN_MOTION_DOT":5.0e-7,"MEAN_MOTION_DDOT":0},{"OBJECT_NAME":"ONEWEB-0432","OBJECT_ID":"2021-132AK","EPOCH":"2025-11-04T03:46:27.307200","MEAN_MOTION":13.18672139,"ECCENTRICITY":0.00019059,"INCLINATION":87.9223,"RA_OF_ASC_NODE":20.1248,"ARG_OF_PERICENTER":71.9346,"MEAN_ANOMALY":288.1993,"EPHEMERIS_TYPE":0,"CLASSIFICATION_TYPE":"U","NORAD_CAT_ID":50502,"ELEMENT_SET_NO":999,"REV_AT_EPOCH":19192,"BSTAR":0.00014992702,"MEAN_MOTION_DOT":7.2e-7,"MEAN_MOTION_DDOT":0},{"OBJECT_NAME":"ONEWEB-0440","OBJECT_ID":"2021-132AL","EPOCH":"2025-11-04T05:18:43.858944","MEAN_MOTION":13.18686661,"ECCENTRICITY":0.00018502,"INCLINATION":87.9226,"RA_OF_ASC_NODE":20.1283,"ARG_OF_PERICENTER":113.0392,"MEAN_ANOMALY":247.0935,"EPHEMERIS_TYPE":0,"CLASSIFICATION_TYPE":"U","NORAD_CAT_ID":50503,"ELEMENT_SET_NO":999,"REV_AT_EPOCH":19192,"BSTAR":0.00017347049,"MEAN_MOTION_DOT":8.1e-7,"MEAN_MOTION_DDOT":0},{"OBJECT_NAME":"ONEWEB-0450","OBJECT_ID":"2021-132AM","EPOCH":"2025-11-04T05:09:24.908832","MEAN_MOTION":13.18684635,"ECCENTRICITY":0.0002142,"INCLINATION":87.9229,"RA_OF_ASC_NODE":20.1529,"ARG_OF_PERICENTER":103.0579,"MEAN_ANOMALY":257.0793,"EPHEMERIS_TYPE":0,"CLASSIFICATION_TYPE":"U","NORAD_CAT_ID":50504,"ELEMENT_SET_NO":999,"REV_AT_EPOCH":19195,"BSTAR":1.4171692e-5,"MEAN_MOTION_DOT":1.8e-7,"MEAN_MOTION_DDOT":0},{"OBJECT_NAME":"ONEWEB-0410","OBJECT_ID":"2022-012A","EPOCH":"2025-11-04T07:03:51.319008","MEAN_MOTION":13.17651144,"ECCENTRICITY":6.523e-5,"INCLINATION":87.9138,"RA_OF_ASC_NODE":50.5608,"ARG_OF_PERICENTER":46.3224,"MEAN_ANOMALY":313.7962,"EPHEMERIS_TYPE":0,"CLASSIFICATION_TYPE":"U","NORAD_CAT_ID":51622,"ELEMENT_SET_NO":999,"REV_AT_EPOCH":18408,"BSTAR":0.00027364936,"MEAN_MOTION_DOT":1.19e-6,"MEAN_MOTION_DDOT":0},{"OBJECT_NAME":"ONEWEB-0411","OBJECT_ID":"2022-012B","EPOCH":"2025-11-04T07:01:46.192800","MEAN_MOTION":13.10371806,"ECCENTRICITY":0.00021186,"INCLINATION":87.8782,"RA_OF_ASC_NODE":81.098,"ARG_OF_PERICENTER":91.23,"MEAN_ANOMALY":268.907,"EPHEMERIS_TYPE":0,"CLASSIFICATION_TYPE":"U","NORAD_CAT_ID":51623,"ELEMENT_SET_NO":999,"REV_AT_EPOCH":17983,"BSTAR":0.001557024,"MEAN_MOTION_DOT":5.56e-6,"MEAN_MOTION_DDOT":0},{"OBJECT_NAME":"ONEWEB-0415","OBJECT_ID":"2022-012C","EPOCH":"2025-11-04T06:56:59.505504","MEAN_MOTION":13.10372566,"ECCENTRICITY":0.00018452,"INCLINATION":87.8784,"RA_OF_ASC_NODE":81.1008,"ARG_OF_PERICENTER":92.6275,"MEAN_ANOMALY":267.5064,"EPHEMERIS_TYPE":0,"CLASSIFICATION_TYPE":"U","NORAD_CAT_ID":51624,"ELEMENT_SET_NO":999,"REV_AT_EPOCH":17983,"BSTAR":0.00165263,"MEAN_MOTION_DOT":5.9e-6,"MEAN_MOTION_DDOT":0},{"OBJECT_NAME":"ONEWEB-0416","OBJECT_ID":"2022-012D","EPOCH":"2025-11-04T07:13:42.638016","MEAN_MOTION":13.10370563,"ECCENTRICITY":0.00015921,"INCLINATION":87.878,"RA_OF_ASC_NODE":81.1193,"ARG_OF_PERICENTER":95.8041,"MEAN_ANOMALY":264.3268,"EPHEMERIS_TYPE":0,"CLASSIFICATION_TYPE":"U","NORAD_CAT_ID":51625,"ELEMENT_SET_NO":999,"REV_AT_EPOCH":17987,"BSTAR":0.00042943574,"MEAN_MOTION_DOT":1.63e-6,"MEAN_MOTION_DDOT":0},{"OBJECT_NAME":"ONEWEB-0422","OBJECT_ID":"2022-012E","EPOCH":"2025-11-04T07:18:26.582976","MEAN_MOTION":13.17650607,"ECCENTRICITY":0.00022022,"INCLINATION":87.9135,"RA_OF_ASC_NODE":50.5633,"ARG_OF_PERICENTER":117.6073,"MEAN_ANOMALY":242.5282,"EPHEMERIS_TYPE":0,"CLASSIFICATION_TYPE":"U","NORAD_CAT_ID":51626,"ELEMENT_SET_NO":999,"REV_AT_EPOCH":18419,"BSTAR":0.0001185418,"MEAN_MOTION_DOT":5.9e-7,"MEAN_MOTION_DDOT":0},{"OBJECT_NAME":"ONEWEB-0423","OBJECT_ID":"2022-012F","EPOCH":"2025-11-04T07:08:43.357056","MEAN_MOTION":13.17650255,"ECCENTRICITY":0.00016821,"INCLINATION":87.9138,"RA_OF_ASC_NODE":50.5746,"ARG_OF_PERICENTER":105.7596,"MEAN_ANOMALY":254.3722,"EPHEMERIS_TYPE":0,"CLASSIFICATION_TYPE":"U","NORAD_CAT_ID":51627,"ELEMENT_SET_NO":999,"REV_AT_EPOCH":18408,"BSTAR":0.00020046587,"MEAN_MOTION_DOT":9.1e-7,"MEAN_MOTION_DDOT":0},{"OBJECT_NAME":"ONEWEB-0425","OBJECT_ID":"2022-012G","EPOCH":"2025-11-04T07:28:01.872192","MEAN_MOTION":13.10371448,"ECCENTRICITY":0.0001229,"INCLINATION":87.8787,"RA_OF_ASC_NODE":81.087,"ARG_OF_PERICENTER":96.5643,"MEAN_ANOMALY":263.5624,"EPHEMERIS_TYPE":0,"CLASSIFICATION_TYPE":"U","NORAD_CAT_ID":51628,"ELEMENT_SET_NO":999,"REV_AT_EPOCH":17987,"BSTAR":-0.00080611732,"MEAN_MOTION_DOT":-2.69e-6,"MEAN_MOTION_DDOT":0},{"OBJECT_NAME":"ONEWEB-0428","OBJECT_ID":"2022-012H","EPOCH":"2025-11-04T06:59:22.904448","MEAN_MOTION":13.1037225,"ECCENTRICITY":0.0001733,"INCLINATION":87.8781,"RA_OF_ASC_NODE":81.1112,"ARG_OF_PERICENTER":101.7983,"MEAN_ANOMALY":258.3339,"EPHEMERIS_TYPE":0,"CLASSIFICATION_TYPE":"U","NORAD_CAT_ID":51629,"ELEMENT_SET_NO":999,"REV_AT_EPOCH":17983,"BSTAR":0.0017324872,"MEAN_MOTION_DOT":6.17e-6,"MEAN_MOTION_DDOT":0}]
